FENGYUN 3C              
1 39260U 13052A   23101.89336116  .00000168  00000+0  10601-3 0  9990
2 39260  98.4333 119.5390 0011975 130.2610 229.9605 14.16019198494152
CASSIOPE                
1 39265U 13055A   23101.84732132  .00027575  00000+0  67910-3 0  9997
2 39265  80.9589 308.8451 0581130 148.0630 215.7227 14.49143429495369
ZACUBE-1 (TSHEPISOSAT)  
1 39417U 13066B   23101.64674879  .00004881  00000+0  57057-3 0  9995
2 39417  97.6798  65.6984 0056413 144.6603 215.8372 14.84396624507325
CINEMA-3 (KHUSAT-2)     
1 39426U 13066L   23101.58562443  .00003475  00000+0  52760-3 0  9995
2 39426  97.8250  34.1494 0101545   1.4726 358.6761 14.71240467503086
TRITON-1                
1 39427U 13066M   23101.56956073  .00005216  00000+0  78954-3 0  9998
2 39427  97.8333  29.9718 0109980  31.8949 328.8854 14.70548085502756
DELFI-N3XT              
1 39428U 13066N   23101.57316746  .00008361  00000+0  12146-2 0  9991
2 39428  97.8316  28.8100 0113686  43.9611 317.0570 14.71831395502338
GOMX-1                  
1 39430U 13066Q   23101.78528876  .00002177  00000+0  38594-3 0  9991
2 39430  97.7870 356.7866 0146009 182.8865 177.1510 14.61489399499848
BRITE-PL1 (LEM)         
1 39431U 13066R   23101.78287929  .00000761  00000+0  16926-3 0  9995
2 39431  97.6809 293.6304 0200661  24.1299 336.9138 14.47856829495522
ICUBE-1                 
1 39432U 13066S   23101.90218762  .00007491  00000+0  68860-3 0  9990
2 39432  97.4829  95.7936 0029053 348.8958  11.1618 14.94744821509236
HUMSAT-D                
1 39433U 13066T   23101.92814377  .00009898  00000+0  83288-3 0  9991
2 39433  97.4527 103.7313 0025999 317.1074  42.8121 14.98174554509834
VELOX-PII               
1 39438U 13066Y   23101.82624884  .00003251  00000+0  41495-3 0  9998
2 39438  97.7357  57.5262 0066429 203.3234 156.4962 14.80585094505128
FIRST-MOVE              
1 39439U 13066Z   23101.43102178  .00009811  00000+0  10294-2 0  9993
2 39439  97.6757  68.9754 0059087 136.6253 223.9636 14.88409334506292
CUBEBUG-2 (LO-74)       
1 39440U 13066AA  23101.80859276  .00004149  00000+0  54367-3 0  9993
2 39440  97.7667  52.7762 0074351 242.6209 116.7424 14.78955576504346
NEE-02 KRYSAOR          
1 39441U 13066AB  23101.83453509  .00002903  00000+0  39847-3 0  9998
2 39441  97.7775  49.7320 0076952 258.9032 100.3519 14.77121502504051
FUNCUBE-1 (AO-73)       
1 39444U 13066AE  23101.61567124  .00005583  00000+0  62814-3 0  9993
2 39444  97.6665  68.1622 0055176 130.8930 229.7084 14.85947801505759
HINCUBE                 
1 39445U 13066AF  23101.84464802  .00005976  00000+0  67592-3 0  9992
2 39445  97.6678  68.1622 0055254 132.6797 227.9093 14.85699493505720
UWE-3                   
1 39446U 13066AG  23101.57991251  .00003881  00000+0  48304-3 0  9999
2 39446  97.7289  58.7661 0065489 195.3207 164.6024 14.81546497504564
AIST-1 (RS-41)          
1 39492U 13078C   23101.79969746  .00001952  00000+0  20228-3 0  9993
2 39492  82.4173 310.9998 0018461 193.0568 167.0151 14.89418060504174
SPROUT                  
1 39770U 14029E   23101.91512568  .00025786  00000+0  21096-2 0  9993
2 39770  97.9631 227.4056 0009334 173.0639 302.2440 14.99276148482210
UNISAT-6                
1 40012U 14033C   23101.92041833  .00003324  00000+0  47438-3 0  9995
2 40012  97.6699 279.2665 0054718 271.2942  88.2001 14.76356749473997
BUGSAT-1 (TITA)         
1 40014U 14033E   23101.95127588  .00004257  00000+0  35443-3 0  9991
2 40014  98.1475 117.9615 0029782 125.4102 234.9908 14.98896722480810
DUCHIFAT-1              
1 40021U 14033M   23101.39994268  .00008660  00000+0  75994-3 0  9991
2 40021  98.0529  63.2923 0012507 128.0277 232.2074 14.96810933479193
NANOSATC-BR1            
1 40024U 14033Q   23101.41261053  .00008095  00000+0  74461-3 0  9996
2 40024  98.0224  54.9360 0012288 135.7004 224.5202 14.94985663478433
QB50P1                  
1 40025U 14033R   23101.81058141  .00006540  00000+0  63080-3 0  9991
2 40025  97.9921  47.4429 0012265 145.0743 215.1282 14.93183759478235
DTUSAT-2                
1 40030U 14033W   23101.51927038  .00006715  00000+0  66045-3 0  9992
2 40030  97.9632  41.2572 0011930 143.3434 216.8603 14.92396599478059
QB50P2                  
1 40032U 14033Y   23101.76336886  .00006226  00000+0  61280-3 0  9999
2 40032  97.9627  41.5212 0011768 144.2989 215.9018 14.92397611478060
POLYITAN-1              
1 40042U 14033AJ  23101.30978551  .00007504  00000+0  71137-3 0  9993
2 40042  98.0026  48.6422 0014093 140.9853 219.2385 14.93801189478058
TIGRISAT                
1 40043U 14033AK  23101.76469136  .00002720  00000+0  39051-3 0  9992
2 40043  97.6627 280.1818 0056708 269.1458  90.3255 14.76163647473619
AISAT                   
1 40054U 14034B   23101.79041080  .00007153  00000+0  89481-3 0  9999
2 40054  98.3698 290.8876 0012406  82.0596 278.2023 14.82569509473626
CANX-4                  
1 40055U 14034C   23101.74048654  .00002156  00000+0  31835-3 0  9997
2 40055  98.3863 274.1636 0014934 126.9333 233.3246 14.76307165472714
CANX-5                  
1 40056U 14034D   23101.88298075  .00002070  00000+0  30597-3 0  9996
2 40056  98.3866 274.2959 0014928 126.6934 233.5649 14.76309765463542
VELOX-I                 
1 40057U 14034E   23101.75016851  .00005272  00000+0  68139-3 0  9993
2 40057  98.3738 291.8026 0011122  96.9147 263.3327 14.81340142473599
METEOR-M 2              
1 40069U 14037A   23101.93121209  .00000091  00000+0  61318-4 0  9990
2 40069  98.4257 110.9775 0005832 162.6867 197.4510 14.20764315454249
DX1                     
1 40071U 14037C   23101.79368618  .00001958  00000+0  24948-3 0  9994
2 40071  98.3691 349.7798 0009522  79.6095 280.6195 14.82743518473537
UKUBE-1                 
1 40074U 14037F   23101.67925963  .00005336  00000+0  59275-3 0  9991
2 40074  98.3493   2.6921 0005200  54.5718 305.6011 14.87645567474363
FIREBIRD 3              
1 40377U 15003B   23101.36169998  .00104727  00000+0  14157-2 0  9998
2 40377  99.0762  41.3784 0062689  84.6784 276.1613 15.55031337454193
FIREBIRD 4              
1 40378U 15003C   23101.36686811  .00104903  00000+0  14106-2 0  9997
2 40378  99.0789  41.6900 0062832  83.8528 276.9874 15.55159643454203
GRIFEX                  
1 40379U 15003D   23101.57104340  .00035198  00000+0  88159-3 0  9992
2 40379  99.0782  22.5798 0091632 139.1061 221.7099 15.35698956453149
CP10 (EXOCUBE)          
1 40380U 15003E   23101.32041951  .00020173  00000+0  61165-3 0  9990
2 40380  99.0852  12.9800 0104078 171.3610 188.9448 15.28927089452496
DEORBITSAIL             
1 40719U 15032E   23101.88204789  .00005436  00000+0  70897-3 0  9996
2 40719  97.7436 334.9748 0016405 112.0725 248.2232 14.80848811418000
XW-2A                   
1 40903U 15049E   23101.78501152  .00619509  18259-3  10113-2 0  9997
2 40903  97.1107 169.9958 0003647 198.8665 301.3916 16.03328334425921
XW-2C                   
1 40906U 15049H   23101.92389866  .00015198  00000+0  61550-3 0  9999
2 40906  97.4961 108.9138 0013535  43.5820  19.4917 15.24686111418296
XW-2D                   
1 40907U 15049J   23101.95343181  .00018051  00000+0  69656-3 0  9999
2 40907  97.4950 109.3130 0012460  38.6939  19.3414 15.26275655418373
LILACSAT-2              
1 40908U 15049K   23101.91808740  .00007894  00000+0  38098-3 0  9992
2 40908  97.5262 105.1989 0016043  64.5671  22.6832 15.18837273417730
XW-2E                   
1 40909U 15049L   23101.83935119  .00032698  00000+0  98099-3 0  9992
2 40909  97.4585 114.8545 0009371  16.9746  63.3872 15.34354598418956
XW-2F                   
1 40910U 15049M   23101.87566534  .00032427  00000+0  99126-3 0  9991
2 40910  97.4672 114.1076 0010211  16.9256  66.3017 15.33754110418719
XW-2B                   
1 40911U 15049N   23101.94104137  .00017797  00000+0  69086-3 0  9992
2 40911  97.4930 109.7763 0012463  40.5281  21.6981 15.26080870418252
KAITUO 1B               
1 40912U 15049P   23101.87771896  .00039415  00000+0  10252-2 0  9998
2 40912  97.4232 118.5754 0007721 334.2327 110.1042 15.38784360419397
LAPAN-A2                
1 40931U 15052B   23101.11531545  .00001454  00000+0  11177-3 0  9995
2 40931   5.9981 205.3858 0013210  62.2590 297.8893 14.77148602407426
LQSAT                   
1 40958U 15057A   23101.85024555  .00000974  00000+0  15569-3 0  9993
2 40958  97.7099 139.0854 0019411  79.3471 280.9909 14.73795858403928
ATHENOXAT 1             
1 41168U 15077C   23101.89268369  .00100368  00000+0  21116-2 0  9998
2 41168  14.9986  16.1025 0003629 181.8786 240.6724 15.43439872406015
GALASSIA                
1 41170U 15077E   23101.89175407  .00043623  00000+0  12597-2 0  9994
2 41170  14.9888  16.3849 0006798 174.3557 185.6843 15.33695403405841
VELOX-II                
1 41171U 15077F   23101.08289557  .00025981  00000+0  98962-3 0  9996
2 41171  14.9898 115.8266 0006481 312.9550  47.0229 15.24477655404938
CHUBUSAT-2              
1 41338U 16012B   23101.89618211  .00005256  00000+0  37020-3 0  9994
2 41338  31.0027 281.4616 0012225 238.2875 121.6569 15.03441339392398
CHUBUSAT-3              
1 41339U 16012C   23101.90759931  .00004685  00000+0  33017-3 0  9999
2 41339  31.0125 278.4003 0012235 246.6919 232.9025 15.03347268392396
HORYU-4                 
1 41340U 16012D   23101.77652097  .00009250  00000+0  59787-3 0  9996
2 41340  31.0035 250.1797 0011356 298.3725  61.5767 15.06889114392693
OUFTI-1                 
1 41458U 16025C   23101.48594119  .00033519  00000+0  10067-2 0  9990
2 41458  98.1899 298.4182 0108309 323.9541  35.4425 15.28673684382848
E-ST@R-II               
1 41459U 16025D   23101.77432581  .00027448  00000+0  88235-3 0  9994
2 41459  98.1923 296.5310 0114213 329.7586 158.3449 15.26039333382759
AAUSAT 4                
1 41460U 16025E   23101.52729130  .00077428  00000+0  15227-2 0  9991
2 41460  98.1692 306.7143 0077123 290.9015 126.9044 15.43755827383447
